NORAD_CAT_ID,OBJECT_NAME,OBJECT_TYPE,EPOCH,MEAN_MOTION,ECCENTRICITY,INCLINATION,RA_OF_ASC_NODE,ARG_OF_PERICENTER,MEAN_ANOMALY,BSTAR,MEAN_MOTION_DOT,MEAN_MOTION_DDOT,TLE_LINE0,TLE_LINE1,TLE_LINE2,SEMIMAJOR_AXIS,PERIOD,APOGEE,PERIGEE,DECAYED
53247.0,STARLINK-4061,PAYLOAD,2023-10-21 20:29:25,15.08864196,0.0001772,53.2167,144.1452,84.7914,275.3281,0.00086187,0.00013464,0.0,0 STARLINK-4061,1 53247U 22086F   23294.85376404  .00013464  00000-0  86187-3 0  9997,2 53247  53.2167 144.1452 0001772  84.7914 275.3281 15.08864196 69492,6917.806,95.436,540.897,538.446,0.0
53247.0,STARLINK-4061,PAYLOAD,2023-10-22 07:37:07,15.08850917,0.0001863,53.2165,142.0665,80.2063,279.9139,0.00019469,2.813e-05,0.0,0 STARLINK-4061,1 53247U 22086F   23295.31744377  .00002813  00000-0  19469-3 0  9992,2 53247  53.2165 142.0665 0001863  80.2063 279.9139 15.08850917 69566,6917.847,95.437,541.001,538.423,0.0
53247.0,STARLINK-4061,PAYLOAD,2023-10-22 13:58:39,15.08845674,0.0002386,53.2164,140.8759,97.5456,262.5807,0.00014886,2.082e-05,0.0,0 STARLINK-4061,1 53247U 22086F   23295.58240735  .00002082  00000-0  14886-3 0  9996,2 53247  53.2164 140.8759 0002386  97.5456 262.5807 15.08845674 70109,6917.863,95.437,541.379,538.077,0.0
53247.0,STARLINK-4061,PAYLOAD,2023-10-22 20:20:12,15.08818951,0.0001402,53.2159,139.6883,96.9808,263.1344,0.0012295,0.00019322,0.0,0 STARLINK-4061,1 53247U 22086F   23295.84737187  .00019322  00000-0  12295-2 0  9993,2 53247  53.2159 139.6883 0001402  96.9808 263.1344 15.08818951 69647,6917.945,95.439,540.78,538.84,0.0
53247.0,STARLINK-4061,PAYLOAD,2023-10-23 04:17:09,15.08801506,0.0001496,53.2156,138.2014,86.147,273.9693,0.00047473,7.268e-05,0.0,0 STARLINK-4061,1 53247U 22086F   23296.17858177  .00007268  00000-0  47473-3 0  9996,2 53247  53.2156 138.2014 0001496  86.1470 273.9693 15.08801506 69693,6917.998,95.44,540.898,538.828,0.0
53247.0,STARLINK-4061,PAYLOAD,2023-10-23 20:11:01,15.08834172,0.0001384,53.2165,135.2284,89.7939,270.3212,0.0027247,0.00043336,0.0,0 STARLINK-4061,1 53247U 22086F   23296.84099413  .00043336  00000-0  27247-2 0  9992,2 53247  53.2165 135.2284 0001384  89.7939 270.3212 15.08834172 69798,6917.898,95.438,540.721,538.806,0.0
53247.0,STARLINK-4061,PAYLOAD,2023-10-23 21:46:25,15.08830753,0.0001407,53.2163,134.9308,89.4596,270.6557,0.0018718,0.0002962,0.0,0 STARLINK-4061,1 53247U 22086F   23296.90723510  .00029620  00000-0  18718-2 0  9994,2 53247  53.2163 134.9308 0001407  89.4596 270.6557 15.08830753 70306,6917.909,95.438,540.747,538.8,0.0
53247.0,STARLINK-4061,PAYLOAD,2023-10-24 04:07:57,15.08835833,0.000138,53.2163,133.7413,90.0049,270.1101,0.0011036,0.00017317,0.0,0 STARLINK-4061,1 53247U 22086F   23297.17219512  .00017317  00000-0  11036-2 0  9992,2 53247  53.2163 133.7413 0001380  90.0049 270.1101 15.08835833 69842,6917.893,95.438,540.713,538.803,0.0
53247.0,STARLINK-4061,PAYLOAD,2023-10-24 13:40:16,15.08847621,0.0001348,53.2162,131.9573,89.2555,270.8592,0.00094571,0.00014798,0.0,0 STARLINK-4061,1 53247U 22086F   23297.56963388  .00014798  00000-0  94571-3 0  9998,2 53247  53.2162 131.9573 0001348  89.2555 270.8592 15.08847621 70407,6917.857,95.437,540.655,538.79,0.0
53247.0,STARLINK-4061,PAYLOAD,2023-10-25 13:31:02,15.08865863,0.000132,53.216,127.4967,89.5966,270.5178,0.00059294,9.168e-05,0.0,0 STARLINK-4061,1 53247U 22086F   23298.56322118  .00009168  00000-0  59294-3 0  9997,2 53247  53.2160 127.4967 0001320  89.5966 270.5178 15.08865863 70057,6917.801,95.436,540.579,538.753,0.0
53247.0,STARLINK-4061,PAYLOAD,2023-10-25 21:27:57,15.08870826,0.0001312,53.2157,126.0096,89.4701,270.6441,0.00056265,8.685e-05,0.0,0 STARLINK-4061,1 53247U 22086F   23298.89441480  .00008685  00000-0  56265-3 0  9995,2 53247  53.2157 126.0096 0001312  89.4701 270.6441 15.08870826 70608,6917.786,95.436,540.559,538.744,0.0
53247.0,STARLINK-4061,PAYLOAD,2023-10-26 11:46:25,15.08858176,0.0001714,53.2151,123.3338,77.3615,282.7568,0.00015949,2.252e-05,0.0,0 STARLINK-4061,1 53247U 22086F   23299.49057286  .00002252  00000-0  15949-3 0  9997,2 53247  53.2151 123.3338 0001714  77.3615 282.7568 15.08858176 70199,6917.825,95.436,540.876,538.504,0.0
53247.0,STARLINK-4061,PAYLOAD,2023-10-26 13:21:48,15.08855133,0.0001358,53.2153,123.0358,90.9349,269.1799,5.8367e-05,6.41e-06,0.0,0 STARLINK-4061,1 53247U 22086F   23299.55681169  .00000641  00000-0  58367-4 0  9999,2 53247  53.2153 123.0358 0001358  90.9349 269.1799 15.08855133 70701,6917.834,95.437,540.639,538.76,0.0
53247.0,STARLINK-4061,PAYLOAD,2023-10-26 21:18:44,15.08850541,0.0001363,53.2154,121.5488,89.5851,270.5297,-3.0091e-05,-7.67e-06,0.0,0 STARLINK-4061,1 53247U 22086F   23299.88801074 -.00000767  00000-0 -30091-4 0  9999,2 53247  53.2154 121.5488 0001363  89.5851 270.5297 15.08850541 70759,6917.848,95.437,540.656,538.77,0.0
53247.0,STARLINK-4061,PAYLOAD,2023-10-26 22:54:07,15.08851917,0.0001377,53.2155,121.2513,88.8761,271.2389,1.7374e-05,-1.1e-07,0.0,0 STARLINK-4061,1 53247U 22086F   23299.95425042 -.00000011  00000-0  17374-4 0  9994,2 53247  53.2155 121.2513 0001377  88.8761 271.2389 15.08851917 70267,6917.844,95.437,540.662,538.756,0.0
53247.0,STARLINK-4061,PAYLOAD,2023-10-27 05:15:39,15.08849211,0.0001368,53.2158,120.0618,88.2542,271.8607,-1.2157e-05,-4.81e-06,0.0,0 STARLINK-4061,1 53247U 22086F   23300.21921196 -.00000481  00000-0 -12157-4 0  9993,2 53247  53.2158 120.0618 0001368  88.2542 271.8607 15.08849211 70807,6917.852,95.437,540.664,538.771,0.0
53247.0,STARLINK-4061,PAYLOAD,2023-10-27 21:09:30,15.08854604,0.000137,53.2158,117.0878,88.076,272.0389,6.3025e-05,7.16e-06,0.0,0 STARLINK-4061,1 53247U 22086F   23300.88160524  .00000716  00000-0  63025-4 0  9995,2 53247  53.2158 117.0878 0001370  88.0760 272.0389 15.08854604 70907,6917.836,95.437,540.648,538.753,0.0
53247.0,STARLINK-4061,PAYLOAD,2023-10-28 11:28:01,15.08801583,0.0001676,53.2159,114.4124,95.0451,265.0733,0.0010731,0.00016814,0.0,0 STARLINK-4061,1 53247U 22086F   23301.47779967  .00016814  00000-0  10731-2 0  9998,2 53247  53.2159 114.4124 0001676  95.0451 265.0733 15.08801583 70494,6917.998,95.44,541.022,538.703,0.0
53247.0,STARLINK-4061,PAYLOAD,2023-10-28 17:49:31,15.08843969,0.0001333,53.2157,113.2231,88.0001,272.1143,-0.00027547,-4.67e-05,0.0,0 STARLINK-4061,1 53247U 22086F   23301.74273022 -.00004670  00000-0 -27547-3 0  9992,2 53247  53.2157 113.2231 0001333  88.0001 272.1143 15.08843969 70534,6917.868,95.437,540.655,538.811,0.0
53247.0,STARLINK-4061,PAYLOAD,2023-10-29 04:57:14,15.088451,0.0001374,53.2168,111.1421,89.1082,271.0067,5.9085e-05,6.53e-06,0.0,0 STARLINK-4061,1 53247U 22086F   23302.20641208  .00000653  00000-0  59085-4 0  9997,2 53247  53.2168 111.1421 0001374  89.1082 271.0067 15.08845100 71106,6917.865,95.437,540.68,538.779,0.0
53247.0,STARLINK-4061,PAYLOAD,2023-10-29 17:40:18,15.08846694,0.0001408,53.2166,108.7616,95.3785,264.7367,0.00018117,2.597e-05,0.0,0 STARLINK-4061,1 53247U 22086F   23302.73632578  .00002597  00000-0  18117-3 0  9994,2 53247  53.2166 108.7616 0001408  95.3785 264.7367 15.08846694 70682,6917.86,95.437,540.699,538.751,0.0
53247.0,STARLINK-4061,PAYLOAD,2023-10-29 20:51:05,15.08848457,0.0001426,53.2155,108.1662,95.1687,264.9468,0.00028407,4.237e-05,0.0,0 STARLINK-4061,1 53247U 22086F   23302.86880859  .00004237  00000-0  28407-3 0  9991,2 53247  53.2155 108.1662 0001426  95.1687 264.9468 15.08848457 71206,6917.855,95.437,540.706,538.733,0.0
53247.0,STARLINK-4061,PAYLOAD,2023-10-30 17:31:06,15.08838043,0.0001456,53.2158,104.3008,95.7698,264.346,0.00013264,1.824e-05,0.0,0 STARLINK-4061,1 53247U 22086F   23303.72993602  .00001824  00000-0  13264-3 0  9992,2 53247  53.2158 104.3008 0001456  95.7698 264.3460 15.08838043 70836,6917.886,95.438,540.759,538.744,0.0
53247.0,STARLINK-4061,PAYLOAD,2023-10-31 14:11:07,15.08840625,0.0001458,53.217,100.4335,99.5399,260.5758,4.4109e-05,4.14e-06,0.0,0 STARLINK-4061,1 53247U 22086F   23304.59105611  .00000414  00000-0  44109-4 0  9990,2 53247  53.2170 100.4335 0001458  99.5399 260.5758 15.08840625 71469,6917.878,95.438,540.752,538.735,0.0
53247.0,STARLINK-4061,PAYLOAD,2023-10-31 17:21:53,15.08842147,0.000133,53.216,99.8406,90.6952,269.4192,7.3933e-05,8.89e-06,0.0,0 STARLINK-4061,1 53247U 22086F   23304.72353539  .00000889  00000-0  73933-4 0  9992,2 53247  53.2160  99.8406 0001330  90.6952 269.4192 15.08842147 71487,6917.874,95.437,540.659,538.819,0.0
53247.0,STARLINK-4061,PAYLOAD,2023-11-01 02:54:12,15.08840079,0.0001309,53.2167,98.0559,88.338,271.7762,2.5208e-05,1.13e-06,0.0,0 STARLINK-4061,1 53247U 22086F   23305.12097555  .00000113  00000-0  25208-4 0  9992,2 53247  53.2167  98.0559 0001309  88.3380 271.7762 15.08840079 71042,6917.88,95.438,540.651,538.84,0.0
53247.0,STARLINK-4061,PAYLOAD,2023-11-01 14:01:55,15.08815295,0.0001414,53.2171,95.974,84.7045,275.4108,0.0006368,9.854e-05,0.0,0 STARLINK-4061,1 53247U 22086F   23305.58466881  .00009854  00000-0  63680-3 0  9990,2 53247  53.2171  95.9740 0001414  84.7045 275.4108 15.08815295 71610,6917.956,95.439,540.799,538.843,0.0
53247.0,STARLINK-4061,PAYLOAD,2023-11-01 17:12:40,15.08838948,0.0001319,53.2169,95.3801,90.4688,269.6455,0.00015177,2.128e-05,0.0,0 STARLINK-4061,1 53247U 22086F   23305.71713876  .00002128  00000-0  15177-3 0  9999,2 53247  53.2169  95.3801 0001319  90.4688 269.6455 15.08838948 71632,6917.884,95.438,540.661,538.836,0.0
53247.0,STARLINK-4061,PAYLOAD,2023-11-02 10:41:55,15.08836247,0.0001325,53.2172,92.1084,86.4092,273.7052,-7.5229e-06,-4.08e-06,0.0,0 STARLINK-4061,1 53247U 22086F   23306.44578069 -.00000408  00000-0 -75229-5 0  9990,2 53247  53.2172  92.1084 0001325  86.4092 273.7052 15.08836247 71241,6917.892,95.438,540.673,538.84,0.0
53247.0,STARLINK-4061,PAYLOAD,2023-11-02 13:52:41,15.08838026,0.0001361,53.2173,91.5141,84.144,275.9707,9.6148e-06,-1.35e-06,0.0,0 STARLINK-4061,1 53247U 22086F   23306.57825987 -.00000135  00000-0  96148-5 0  9997,2 53247  53.2173  91.5141 0001361  84.1440 275.9707 15.08838026 71766,6917.886,95.438,540.693,538.81,0.0
